CCSDS_OMM_VERS = 2.0
CREATION_DATE  = 
ORIGINATOR     = 

OBJECT_NAME    = SL-3 R/B
OBJECT_ID      = 1982-079B
CENTER_NAME    = EARTH
REF_FRAME      = TEME
TIME_SYSTEM    = UTC
MEAN_ELEMENT_THEORY = SGP/SGP4

EPOCH          = 2025-11-20T06:47:25.768896
MEAN_MOTION    = 15.23243087
ECCENTRICITY   = .00258231
INCLINATION    = 81.1454
RA_OF_ASC_NODE = 322.1280
ARG_OF_PERICENTER = 172.2182
MEAN_ANOMALY   = 187.9457

EPHEMERIS_TYPE = 0
CLASSIFICATION_TYPE = U
NORAD_CAT_ID   = 13403
ELEMENT_SET_NO = 999
REV_AT_EPOCH   = 36103
BSTAR          = .23377855E-3
MEAN_MOTION_DOT = .5613E-4
MEAN_MOTION_DDOT = 0

CCSDS_OMM_VERS = 2.0
CREATION_DATE  = 
ORIGINATOR     = 

OBJECT_NAME    = SL-14 R/B
OBJECT_ID      = 1982-092B
CENTER_NAME    = EARTH
REF_FRAME      = TEME
TIME_SYSTEM    = UTC
MEAN_ELEMENT_THEORY = SGP/SGP4

EPOCH          = 2025-11-20T06:37:01.384608
MEAN_MOTION    = 14.86520878
ECCENTRICITY   = .0019138
INCLINATION    = 82.5687
RA_OF_ASC_NODE = 243.7181
ARG_OF_PERICENTER = 307.3795
MEAN_ANOMALY   = 167.8131

EPHEMERIS_TYPE = 0
CLASSIFICATION_TYPE = U
NORAD_CAT_ID   = 13553
ELEMENT_SET_NO = 999
REV_AT_EPOCH   = 31267
BSTAR          = .75180134E-4
MEAN_MOTION_DOT = .691E-5
MEAN_MOTION_DDOT = 0

CCSDS_OMM_VERS = 2.0
CREATION_DATE  = 
ORIGINATOR     = 

OBJECT_NAME    = SL-3 R/B
OBJECT_ID      = 1983-010B
CENTER_NAME    = EARTH
REF_FRAME      = TEME
TIME_SYSTEM    = UTC
MEAN_ELEMENT_THEORY = SGP/SGP4

EPOCH          = 2025-11-20T04:55:03.207936
MEAN_MOTION    = 15.42652810
ECCENTRICITY   = .00181716
INCLINATION    = 81.1020
RA_OF_ASC_NODE = 136.1080
ARG_OF_PERICENTER = 68.3158
MEAN_ANOMALY   = 292.0017

EPHEMERIS_TYPE = 0
CLASSIFICATION_TYPE = U
NORAD_CAT_ID   = 13819
ELEMENT_SET_NO = 999
REV_AT_EPOCH   = 34104
BSTAR          = .2884863E-3
MEAN_MOTION_DOT = .12675E-3
MEAN_MOTION_DDOT = 0

CCSDS_OMM_VERS = 2.0
CREATION_DATE  = 
ORIGINATOR     = 

OBJECT_NAME    = SL-3 R/B
OBJECT_ID      = 1983-075B
CENTER_NAME    = EARTH
REF_FRAME      = TEME
TIME_SYSTEM    = UTC
MEAN_ELEMENT_THEORY = SGP/SGP4

EPOCH          = 2025-11-20T05:51:09.048672
MEAN_MOTION    = 15.35515153
ECCENTRICITY   = .00209091
INCLINATION    = 97.6095
RA_OF_ASC_NODE = 319.9838
ARG_OF_PERICENTER = 260.2291
MEAN_ANOMALY   = 99.6591

EPHEMERIS_TYPE = 0
CLASSIFICATION_TYPE = U
NORAD_CAT_ID   = 14208
ELEMENT_SET_NO = 999
REV_AT_EPOCH   = 31334
BSTAR          = .30175699E-3
MEAN_MOTION_DOT = .10405E-3
MEAN_MOTION_DDOT = 0

CCSDS_OMM_VERS = 2.0
CREATION_DATE  = 
ORIGINATOR     = 

OBJECT_NAME    = COSMOS 1536
OBJECT_ID      = 1984-013A
CENTER_NAME    = EARTH
REF_FRAME      = TEME
TIME_SYSTEM    = UTC
MEAN_ELEMENT_THEORY = SGP/SGP4

EPOCH          = 2025-11-20T04:40:53.310144
MEAN_MOTION    = 15.22173451
ECCENTRICITY   = .0013749
INCLINATION    = 82.5474
RA_OF_ASC_NODE = 216.5130
ARG_OF_PERICENTER = 314.3276
MEAN_ANOMALY   = 45.6832

EPHEMERIS_TYPE = 0
CLASSIFICATION_TYPE = U
NORAD_CAT_ID   = 14699
ELEMENT_SET_NO = 999
REV_AT_EPOCH   = 25595
BSTAR          = .29980984E-3
MEAN_MOTION_DOT = .6927E-4
MEAN_MOTION_DDOT = 0

CCSDS_OMM_VERS = 2.0
CREATION_DATE  = 
ORIGINATOR     = 

OBJECT_NAME    = SL-14 R/B
OBJECT_ID      = 1984-027B
CENTER_NAME    = EARTH
REF_FRAME      = TEME
TIME_SYSTEM    = UTC
MEAN_ELEMENT_THEORY = SGP/SGP4

EPOCH          = 2025-11-20T03:07:41.305152
MEAN_MOTION    = 14.85840214
ECCENTRICITY   = .00174012
INCLINATION    = 82.5417
RA_OF_ASC_NODE = 347.7608
ARG_OF_PERICENTER = 341.2981
MEAN_ANOMALY   = 18.7594

EPHEMERIS_TYPE = 0
CLASSIFICATION_TYPE = U
NORAD_CAT_ID   = 14820
ELEMENT_SET_NO = 999
REV_AT_EPOCH   = 23136
BSTAR          = .57431978E-4
MEAN_MOTION_DOT = .525E-5
MEAN_MOTION_DDOT = 0

CCSDS_OMM_VERS = 2.0
CREATION_DATE  = 
ORIGINATOR     = 

OBJECT_NAME    = SL-8 R/B
OBJECT_ID      = 1985-006B
CENTER_NAME    = EARTH
REF_FRAME      = TEME
TIME_SYSTEM    = UTC
MEAN_ELEMENT_THEORY = SGP/SGP4

EPOCH          = 2025-11-20T03:48:09.021600
MEAN_MOTION    = 14.37700632
ECCENTRICITY   = .00177627
INCLINATION    = 74.0445
RA_OF_ASC_NODE = 102.6787
ARG_OF_PERICENTER = 41.7058
MEAN_ANOMALY   = 131.0621

EPHEMERIS_TYPE = 0
CLASSIFICATION_TYPE = U
NORAD_CAT_ID   = 15483
ELEMENT_SET_NO = 999
REV_AT_EPOCH   = 13828
BSTAR          = .96276719E-4
MEAN_MOTION_DOT = .264E-5
MEAN_MOTION_DDOT = 0

CCSDS_OMM_VERS = 2.0
CREATION_DATE  = 
ORIGINATOR     = 

OBJECT_NAME    = SL-12 R/B(2)
OBJECT_ID      = 1985-042D
CENTER_NAME    = EARTH
REF_FRAME      = TEME
TIME_SYSTEM    = UTC
MEAN_ELEMENT_THEORY = SGP/SGP4

EPOCH          = 2025-11-20T07:05:29.232672
MEAN_MOTION    = 14.21941744
ECCENTRICITY   = .00374804
INCLINATION    = 71.1078
RA_OF_ASC_NODE = 318.8370
ARG_OF_PERICENTER = 294.3270
MEAN_ANOMALY   = 77.7273

EPHEMERIS_TYPE = 0
CLASSIFICATION_TYPE = U
NORAD_CAT_ID   = 15772
ELEMENT_SET_NO = 999
REV_AT_EPOCH   = 9884
BSTAR          = .81392547E-4
MEAN_MOTION_DOT = .133E-5
MEAN_MOTION_DDOT = 0

CCSDS_OMM_VERS = 2.0
CREATION_DATE  = 
ORIGINATOR     = 

OBJECT_NAME    = SL-14 R/B
OBJECT_ID      = 1985-069B
CENTER_NAME    = EARTH
REF_FRAME      = TEME
TIME_SYSTEM    = UTC
MEAN_ELEMENT_THEORY = SGP/SGP4

EPOCH          = 2025-11-20T05:10:32.803680
MEAN_MOTION    = 14.86284954
ECCENTRICITY   = .00185037
INCLINATION    = 82.5247
RA_OF_ASC_NODE = 127.8787
ARG_OF_PERICENTER = 190.7185
MEAN_ANOMALY   = 169.3640

EPHEMERIS_TYPE = 0
CLASSIFICATION_TYPE = U
NORAD_CAT_ID   = 15945
ELEMENT_SET_NO = 999
REV_AT_EPOCH   = 15657
BSTAR          = .72530543E-4
MEAN_MOTION_DOT = .664E-5
MEAN_MOTION_DDOT = 0

CCSDS_OMM_VERS = 2.0
CREATION_DATE  = 
ORIGINATOR     = 

OBJECT_NAME    = SL-16 R/B
OBJECT_ID      = 1985-097B
CENTER_NAME    = EARTH
REF_FRAME      = TEME
TIME_SYSTEM    = UTC
MEAN_ELEMENT_THEORY = SGP/SGP4

EPOCH          = 2025-11-20T06:06:33.012000
MEAN_MOTION    = 14.16579544
ECCENTRICITY   = .00055362
INCLINATION    = 71.0043
RA_OF_ASC_NODE = 10.9417
ARG_OF_PERICENTER = 52.0843
MEAN_ANOMALY   = 12.9366

EPHEMERIS_TYPE = 0
CLASSIFICATION_TYPE = U
NORAD_CAT_ID   = 16182
ELEMENT_SET_NO = 999
REV_AT_EPOCH   = 7173
BSTAR          = .17685656E-3
MEAN_MOTION_DOT = .305E-5
MEAN_MOTION_DDOT = 0

CCSDS_OMM_VERS = 2.0
CREATION_DATE  = 
ORIGINATOR     = 

OBJECT_NAME    = SL-14 R/B
OBJECT_ID      = 1986-006B
CENTER_NAME    = EARTH
REF_FRAME      = TEME
TIME_SYSTEM    = UTC
MEAN_ELEMENT_THEORY = SGP/SGP4

EPOCH          = 2025-11-20T05:15:44.913312
MEAN_MOTION    = 14.86627265
ECCENTRICITY   = .00752093
INCLINATION    = 82.5281
RA_OF_ASC_NODE = 2.7417
ARG_OF_PERICENTER = 275.7055
MEAN_ANOMALY   = 83.5590

EPHEMERIS_TYPE = 0
CLASSIFICATION_TYPE = U
NORAD_CAT_ID   = 16496
ELEMENT_SET_NO = 999
REV_AT_EPOCH   = 13294
BSTAR          = .80663473E-4
MEAN_MOTION_DOT = .778E-5
MEAN_MOTION_DDOT = 0

CCSDS_OMM_VERS = 2.0
CREATION_DATE  = 
ORIGINATOR     = 

OBJECT_NAME    = COSMOS 1743
OBJECT_ID      = 1986-034A
CENTER_NAME    = EARTH
REF_FRAME      = TEME
TIME_SYSTEM    = UTC
MEAN_ELEMENT_THEORY = SGP/SGP4

EPOCH          = 2025-11-20T01:53:05.484480
MEAN_MOTION    = 15.50666216
ECCENTRICITY   = .00061905
INCLINATION    = 82.5363
RA_OF_ASC_NODE = 188.0991
ARG_OF_PERICENTER = 351.5742
MEAN_ANOMALY   = 8.5404

EPHEMERIS_TYPE = 0
CLASSIFICATION_TYPE = U
NORAD_CAT_ID   = 16719
ELEMENT_SET_NO = 999
REV_AT_EPOCH   = 16322
BSTAR          = .44205336E-3
MEAN_MOTION_DOT = .25451E-3
MEAN_MOTION_DDOT = 0

