SL-3 R/B                
1 13403U 82079B   25324.28293714  .00005613  00000+0  23378-3 0  9999
2 13403  81.1454 322.1280 0025823 172.2182 187.9457 15.23243087361036
SL-14 R/B               
1 13553U 82092B   25324.27571047  .00000691  00000+0  75180-4 0  9997
2 13553  82.5687 243.7181 0019138 307.3795 167.8131 14.86520878312672
SL-3 R/B                
1 13819U 83010B   25324.20489824  .00012675  00000+0  28849-3 0  9991
2 13819  81.1020 136.1080 0018171  68.3158 292.0017 15.42652810341041
SL-3 R/B                
1 14208U 83075B   25324.24385473  .00010405  00000+0  30176-3 0  9999
2 14208  97.6095 319.9838 0020909 260.2291  99.6591 15.35515153313343
COSMOS 1536             
1 14699U 84013A   25324.19506146  .00006927  00000+0  29981-3 0  9998
2 14699  82.5474 216.5130 0013749 314.3276  45.6832 15.22173451255954
SL-14 R/B               
1 14820U 84027B   25324.13033918  .00000525  00000+0  57432-4 0  9996
2 14820  82.5417 347.7608 0017401 341.2981  18.7594 14.85840214231366
SL-8 R/B                
1 15483U 85006B   25324.15843775  .00000264  00000+0  96277-4 0  9992
2 15483  74.0445 102.6787 0017762  41.7058 131.0621 14.37700632138285
SL-12 R/B(2)            
1 15772U 85042D   25324.29547723  .00000133  00000+0  81393-4 0  9990
2 15772  71.1078 318.8370 0037480 294.3270  77.7273 14.21941744 98846
SL-14 R/B               
1 15945U 85069B   25324.21565745  .00000664  00000+0  72531-4 0  9990
2 15945  82.5247 127.8787 0018503 190.7185 169.3640 14.86284954156576
SL-16 R/B               
1 16182U 85097B   25324.25454875  .00000305  00000+0  17686-3 0  9991
2 16182  71.0043  10.9417 0005536  52.0843  12.9366 14.16579544 71739
SL-14 R/B               
1 16496U 86006B   25324.21926983  .00000778  00000+0  80663-4 0  9990
2 16496  82.5281   2.7417 0075209 275.7055  83.5590 14.86627265132945
COSMOS 1743             
1 16719U 86034A   25324.07853570  .00025451  00000+0  44205-3 0  9990
2 16719  82.5363 188.0991 0006190 351.5742   8.5404 15.50666216163225
